[Satellite]
VERSION=1.1
NAME=CXO
NICKNAME=CXO
TLE1=1 25867U 99040B   22345.21555117  .00000489  00000+0  00000+0 0  9992
TLE2=2 25867  40.6949 219.2607 8980000 244.7508 359.7656  0.37807892 12462
STATUS=0
